GSAT0101 (PRN E11)      
1 37846U 11060A   22151.82725197 -.00000092  00000+0  00000+0 0  9998
2 37846  56.9903  21.7871 0004036  33.9924 326.0896  1.70475276 66062
GSAT0102 (PRN E12)      
1 37847U 11060B   22151.89780907 -.00000091  00000+0  00000+0 0  9995
2 37847  56.9911  21.7850 0003916   2.7749  87.2452  1.70475590 66067
GSAT0103 (PRN E19)      
1 38857U 12055A   22150.69368025  .00000053  00000+0  00000+0 0  9999
2 38857  55.1339 142.1867 0005506 270.4151  89.5060  1.70473793 59805
GSAT0104 (PRN E20)      
1 38858U 12055B   22151.83699119  .00000053  00000+0  00000+0 0  9998
2 38858  55.1344 142.1567 0003056 272.4485  87.4957  1.70474083 59938
GSAT0201 (PRN E18)      
1 40128U 14050A   22152.57847125 -.00000102  00000+0  00000+0 0  9998
2 40128  50.2946 332.9139 1628603 123.4547 253.2226  1.85519064 52867
GSAT0202 (PRN E14)      
1 40129U 14050B   22152.83952008 -.00000100  00000+0  00000+0 0  9993
2 40129  50.3199 331.9637 1625661 124.2721 252.2406  1.85519736 53063
GSAT0203 (PRN E26)      
1 40544U 15017A   22151.60799175 -.00000093  00000+0  00000+0 0  9997
2 40544  56.7856  21.8286 0001299 284.9332  75.1080  1.70475924 44014
GSAT0204 (PRN E22)      
1 40545U 15017B   22148.92773738 -.00000101  00000+0  00000+0 0  9996
2 40545  56.7913  21.9147 0001718 271.8031  88.2285  1.70475456  7014
GSAT0205 (PRN E24)      
1 40889U 15045A   22152.21433740 -.00000020  00000+0  00000+0 0  9991
2 40889  55.6340 262.4124 0003855  21.4810 338.5513  1.70474062 41837
GSAT0206 (PRN E30)      
1 40890U 15045B   22151.26193419 -.00000024  00000+0  00000+0 0  9997
2 40890  55.6338 262.4344 0002068  10.0178 349.9957  1.70474063 41846
GSAT0209 (PRN E09)      
1 41174U 15079A   22152.60951653  .00000054  00000+0  00000+0 0  9993
2 41174  55.1508 141.8374 0005573 303.9494  55.9740  1.70474555 40184
GSAT0208 (PRN E08)      
1 41175U 15079B   22151.06922934  .00000052  00000+0  00000+0 0  9991
2 41175  55.1484 141.8784 0004846 302.2320  57.7027  1.70474573 39990
GSAT0211 (PRN E02)      
1 41549U 16030A   22151.77541480 -.00000021  00000+0  00000+0 0  9992
2 41549  55.7787 262.3516 0002848 326.6734  33.3219  1.70475597 37468
GSAT0210 (PRN E01)      
1 41550U 16030B   22152.65463986 -.00000017  00000+0  00000+0 0  9991
2 41550  55.7779 262.3289 0002393 280.1454  79.8468  1.70475715 37470
GSAT0207 (PRN E07)      
1 41859U 16069A   22151.72931090  .00000052  00000+0  00000+0 0  9996
2 41859  54.8111 142.0470 0005799 293.0672  66.8511  1.70473197 34436
GSAT0212 (PRN E03)      
1 41860U 16069B   22151.58271420  .00000052  00000+0  00000+0 0  9996
2 41860  54.8082 142.0484 0004336 309.0574  50.8839  1.70473214 34464
GSAT0213 (PRN E04)      
1 41861U 16069C   22150.77498395  .00000052  00000+0  00000+0 0  9999
2 41861  54.8103 142.0761 0005541 276.2129  83.7076  1.70473331 34319
GSAT0214 (PRN E05)      
1 41862U 16069D   22152.68180275  .00000054  00000+0  00000+0 0  9999
2 41862  54.8092 142.0179 0004583 280.2508  79.6743  1.70473279 34474
GSAT0215 (PRN E21)      
1 43055U 17079A   22151.99939742 -.00000020  00000+0  00000+0 0  9995
2 43055  55.7538 262.1780 0001864 269.7805  90.2133  1.70474818 27809
GSAT0216 (PRN E25)      
1 43056U 17079B   22152.29163438 -.00000019  00000+0  00000+0 0  9999
2 43056  55.7542 262.1698 0003592 275.7222  84.2541  1.70474948 27791
GSAT0217 (PRN E27)      
1 43057U 17079C   22152.51187202 -.00000018  00000+0  00000+0 0  9999
2 43057  55.7516 262.1635 0003085 292.1569  67.8290  1.70474870 27813
GSAT0218 (PRN E31)      
1 43058U 17079D   22152.14530901 -.00000019  00000+0  00000+0 0  9998
2 43058  55.7528 262.1710 0004050 271.1443  88.8255  1.70474820 27800
GSAT0221 (PRN E15)      
1 43564U 18060A   22152.04389828 -.00000091  00000+0  00000+0 0  9990
2 43564  57.1679  21.6281 0002426 310.8041  49.2311  1.70475732 23999
GSAT0222 (PRN E33)      
1 43565U 18060B   22151.09058853 -.00000094  00000+0  00000+0 0  9999
2 43565  57.1695  21.6544 0002509 327.1369  32.9032  1.70475697 24019
GSAT0219 (PRN E36)      
1 43566U 18060C   22151.31114343 -.00000093  00000+0  00000+0 0  9991
2 43566  57.1702  21.6505 0002335 333.8728  26.1713  1.70475754 23997
GSAT0220 (PRN E13)      
1 43567U 18060D   22148.01171980 -.00000102  00000+0  00000+0 0  9996
2 43567  57.1692  21.7394 0002296 324.0701  35.9638  1.70475628 23929
GSAT0223                
1 49809U 21116A   22151.71696972 -.00000092  00000+0  00000+0 0  9999
2 49809  57.1628  21.5381 0001347 116.4370  87.5760  1.70475907  2991
GSAT0224                
1 49810U 21116B   22151.91837973 -.00000091  00000+0  00000+0 0  9990
2 49810  57.1641  21.5307 0001589  89.3774 350.7284  1.70475889  3019
